{
    "properties": {
        "path": "brands/amenity/mosque",
        "skipCollection": true,
        "exclude": {
            "generic": [
                "^mosque$"
            ]
        }
    },
    "items": [
        {
            "displayName": "Istiqlal Mosque",
            "id": "istiqlalmosque-3e7699",
            "locationSet": {
                "include": [
                    "id"
                ]
            },
            "tags": {
                "amenity": "mosque",
                "brand": "Grand Mosque of Bandung",
                "brand:en": "Grand Mosque of Bandung",
                "brand:id": "Masjid Raya Bandung",
                "brand:wikipedia": "en:Grand Mosque of Bandung",
                "brand:wikidata": "Q13094993",
                "cuisine": "mosque",
                "name": "Grand Mosque of Bandung",
                "name:en": "Grand Mosque of Bandung",
                "name:id": "Masjid Raya Bandung"
            }
        },
        {
            "displayName": "Istiqlal Mosque",
            "id": "istiqlalmosque-3e7699",
            "locationSet": {
                "include": [
                    "id"
                ]
            },
            "tags": {
                "amenity": "mosque",
                "brand": "Istiqlal Mosque",
                "brand:en": "Istiqlal Mosque",
                "brand:id": "Masjid Istiqlal",
                "brand:wikipedia": "en:Istiqlal Mosque",
                "brand:wikidata": "Q475379",
                "cuisine": "mosque",
                "name": "Istiqlal Mosque",
                "name:en": "Istiqlal Mosque",
                "name:id": "Masjid Istiqlal"
            }
        }
    ]
}